363P/Lemmon,e,5.3938,146.7585,340.7620,3.574636,0.1458332,0.51855868,28.4051,05/27.0/2025,2000,g 17.5,4.0
# From MPEC 2024-M41
364P/PANSTARRS,e,11.8921,45.8404,212.8090,2.900965,0.1994758,0.71759551,148.6463,05/27.0/2025,2000,g 17.0,2.0
# From MPC111775
365P/PANSTARRS,e,9.8499,86.6559,67.4151,3.156289,0.1757676,0.58164648,104.6685,05/27.0/2025,2000,g 17.0,4.0
# From MPC114610
366P/Spacewatch,e,8.8567,70.7231,152.9943,3.500372,0.1504987,0.34864690,17.4745,05/27.0/2025,2000,g 15.0,4.0
# From MPC112395
367P/Catalina,e,8.4591,58.6610,172.6824,3.511714,0.1497702,0.28013903,20.2901,05/27.0/2025,2000,g 17.5,2.0
# From MPC114610
368P/NEAT,e,15.4825,257.8563,118.9858,5.535100,0.0756861,0.62565307,185.1112,05/27.0/2025,2000,g 14.0,4.0
# From MPC114610
369P/Hill,e,10.3195,47.2846,13.2400,4.378640,0.1075710,0.55590167,259.3203,05/27.0/2025,2000,g 15.0,4.0
# From MPEC 2021-F20
370P/NEAT,e,19.4172,55.0862,356.7854,6.440173,0.0603056,0.61515967,153.1922,05/27.0/2025,2000,g 13.0,4.0
# From MPC114610
371P/LINEAR-Skiff,e,17.3838,67.2836,308.5667,4.180560,0.1153061,0.47658049,279.4044,05/27.0/2025,2000,g 16.0,4.0
# From MPEC 2020-K19
372P/McNaught,e,9.5039,27.5497,325.9571,4.512885,0.1028070,0.15122466,247.6135,05/27.0/2025,2000,g 13.5,4.0
# From MPEC 2021-F20
373P/Rinner,e,13.7706,231.9308,221.1382,3.796950,0.1332146,0.39381395,297.9287,05/27.0/2025,2000,g 14.5,4.0
# From MPC114610
374P/Larson,e,10.7604,7.8661,51.5863,4.971310,0.0889197,0.46362371,206.6796,05/27.0/2025,2000,g 14.0,4.0
# From MPEC 2021-F20
375P/Hill,e,17.3746,359.8321,119.4529,5.545508,0.0754731,0.66024467,177.0796,05/27.0/2025,2000,g 16.0,4.0
# From MPEC 2024-RQ6
376P/LONEOS,e,1.1662,312.8498,285.3470,5.755236,0.0713854,0.51374912,148.6894,05/27.0/2025,2000,g 12.5,4.0
# From MPEC 2022-N37
377P/Scotti,e,9.0317,225.9340,354.8900,6.694780,0.0568983,0.25144096,101.4227,05/27.0/2025,2000,g  9.5,4.0
# From MPEC 2025-A40
378P/McNaught,e,19.1600,93.7910,193.3056,6.286984,0.0625231,0.46343086,105.8844,05/27.0/2025,2000,g 12.0,4.0
# From MPC115889
379P/Spacewatch,e,12.4365,30.4481,184.6924,3.483303,0.1516063,0.35019599,318.7930,05/27.0/2025,2000,g 15.0,4.0
# From MPEC 2023-C45
380P/PANSTARRS,e,8.0336,127.7125,87.7006,4.443323,0.1052306,0.33393211,236.9481,05/27.0/2025,2000,g 12.5,4.0
# From MPEC 2021-J28
381P/LINEAR-Spacewatch,e,28.3371,173.3208,173.8480,7.145070,0.0516053,0.68054471,106.8686,05/27.0/2025,2000,g 17.5,2.0
# From MPC182891
382P/Larson,e,8.2714,170.1650,162.3947,5.889974,0.0689500,0.26542193,89.9801,05/27.0/2025,2000,g  8.0,4.0
# From MPEC 2022-OB6
383P/Christensen,e,12.3168,207.8549,133.7231,3.549049,0.1474131,0.59847779,300.8011,05/27.0/2025,2000,g 18.0,4.0
# From MPC182891
384P/Kowalski,e,7.2841,354.1878,37.7023,2.897451,0.1998389,0.61625473,49.9356,05/27.0/2025,2000,g 19.5,4.0
# From MPEC 2021-F20
385P/Hill,e,16.8223,357.0342,44.4635,4.289127,0.1109560,0.40185287,230.6414,05/27.0/2025,2000,g 13.0,4.0
# From MPEC 2021-L04
386P/PANSTARRS,e,15.2469,134.9158,353.1042,4.049051,0.1209690,0.41750662,210.5130,05/27.0/2025,2000,g 14.5,4.0
# From MPEC 2021-J28
387P/Boattini,e,8.9379,259.2388,162.8527,4.797467,0.0937964,0.73698290,195.7545,05/27.0/2025,2000,g 15.0,4.0
# From MPEC 2021-S45
388P/Gibbs,e,23.8780,37.0088,42.3705,5.240799,0.0821501,0.61935794,175.0798,05/27.0/2025,2000,g 13.0,4.0
# From MPEC 2022-OB6
389P/Siding Spring,e,160.0794,218.8505,249.3226,5.630063,0.0737792,0.70571198,145.6135,05/27.0/2025,2000,g 16.0,4.0
# From MPEC 2024-EF7
390P/Gibbs,e,18.5221,152.2009,232.5581,5.817815,0.0702367,0.70666693,132.8621,05/27.0/2025,2000,g 12.0,4.0
# From MPEC 2021-F20
391P/Kowalski,e,21.2568,124.7739,186.9303,4.691562,0.0969902,0.11837303,255.2282,05/27.0/2025,2000,g  8.0,4.0
# From MPEC 2021-J28
392P/LINEAR,e,4.9284,24.8019,71.9663,6.142430,0.0647431,0.68393713,121.7194,05/27.0/2025,2000,g 14.5,4.0
# From MPC182892
393P/Spacewatch-Hill,e,16.7834,36.4018,329.2040,4.800494,0.0937077,0.11909556,190.7552,05/27.0/2025,2000,g 11.0,4.0
# From MPEC 2020-KB7
394P/PANSTARRS,e,8.5281,98.1031,54.4509,4.326489,0.1095218,0.36836209,219.4705,05/27.0/2025,2000,g 16.0,2.4
# From MPC182892
395P/Catalina-NEAT,e,3.5698,220.9675,100.6948,7.203109,0.0509828,0.41143411,60.7438,05/27.0/2025,2000,g 10.0,4.0
# From MPEC 2020-KB7
396P/,e,5.4426,136.6073,8.3085,6.798741,0.0555983,0.41700111,116.6348,05/27.0/2025,2000,g 12.0,4.0
# From MPEC 2022-OB6
397P/Lemmon,e,10.9199,8.2087,14.5877,3.832236,0.1313789,0.40458548,236.7446,05/27.0/2025,2000,g 12.0,4.0
# From MPEC 2021-L04
398P/Boattini,e,11.0275,320.1347,127.5506,3.124432,0.1784627,0.58376414,287.3792,05/27.0/2025,2000,g 15.5,4.0
# From MPEC 2023-XP6
399P/PANSTARRS,e,13.3162,207.1166,214.4494,3.793631,0.1333894,0.44728399,195.3298,05/27.0/2025,2000,g 14.0,4.0
# From MPEC 2024-TD8
400P/PANSTARRS,e,10.9251,176.3476,238.9524,3.561992,0.1466104,0.40959303,229.5149,05/27.0/2025,2000,g 15.5,2.8
# From MPEC 2022-K19
401P/McNaught,e,12.8003,359.9234,309.3520,5.776680,0.0709883,0.57835046,142.1009,05/27.0/2025,2000,g 12.5,4.0
# From MPEC 2024-LE0
402P/LINEAR,e,30.8290,123.0448,326.9922,7.040878,0.0527550,0.44001885,66.3642,05/27.0/2025,2000,g  9.0,4.0
# From MPEC 2021-J28
403P/Catalina,e,12.3321,277.5611,163.9699,5.432681,0.0778364,0.50422966,133.2654,05/27.0/2025,2000,g 12.0,4.0
# From MPEC 2025-GB9
404P/Bressi,e,9.8042,260.0416,168.9924,4.718585,0.0961582,0.12421117,55.1195,05/27.0/2025,2000,g 10.0,4.0
# From MPEC 2021-L04
405P/Lemmon,e,9.3791,112.1933,3.3090,3.603831,0.1440646,0.69019403,232.4198,05/27.0/2025,2000,g 17.5,4.0
# From MPEC 2021-F20
406P/Gibbs,e,1.2099,352.3880,11.5602,3.579457,0.1455386,0.54103689,249.5543,05/27.0/2025,2000,g 17.0,4.0
# From MPEC 2022-YN2
407P/PANSTARRS-Fuls,e,4.8757,80.2437,93.1297,3.493110,0.1509683,0.37582482,295.8940,05/27.0/2025,2000,g 14.0,4.0
# From MPEC 2025-J08
408P/Novichonok-Gerke,e,19.3517,189.4512,226.6912,4.745754,0.0953337,0.26841715,91.8966,05/27.0/2025,2000,g 11.0,4.0
# From MPEC 2022-ED3
409P/LONEOS-Hill,e,17.1484,143.6403,15.0414,6.032791,0.0665161,0.71022992,105.0519,05/27.0/2025,2000,g 14.0,4.0
# From MPEC 2022-M21
410P/NEAT-LINEAR,e,9.3881,139.9330,313.2731,6.653702,0.0574261,0.51172233,82.2485,05/27.0/2025,2000,g 12.5,4.0
# From MPEC 2025-HB5
411P/Christensen,e,12.3888,77.6514,46.5708,5.811688,0.0703478,0.58179866,111.3118,05/27.0/2025,2000,g 13.5,4.0
# From MPEC 2021-F20
412P/WISE,e,8.9296,0.8427,155.8609,3.111472,0.1795789,0.47905441,293.7996,05/27.0/2025,2000,g 17.0,4.0
# From MPEC 2025-J08
413P/Larson,e,15.9605,38.9489,186.7391,3.735604,0.1365095,0.41782003,192.7342,05/27.0/2025,2000,g 14.0,4.0
# From MPEC 2024-JU4
414P/STEREO,e,23.4073,257.8155,210.7102,2.792079,0.2112577,0.81226605,334.1570,05/27.0/2025,2000,g 19.0,4.0
# From MPEC 2022-J42
415P/Tenagra,e,31.8095,160.2579,345.8829,4.108196,0.1183661,0.19552353,184.9723,05/27.0/2025,2000,g 12.0,4.0
# From MPEC 2025-HB5
416P/Scotti,e,3.3634,355.7320,134.4523,4.006461,0.1229031,0.45546975,191.7628,05/27.0/2025,2000,g 15.5,4.0
# From MPEC 2021-W31
417P/NEOWISE,e,9.8891,112.0704,126.4526,3.346073,0.1610278,0.55523336,244.8055,05/27.0/2025,2000,g 16.5,4.0
# From MPEC 2022-TA0
418P/LINEAR,e,5.7808,277.6193,307.3353,5.090144,0.0858240,0.66386030,113.1704,05/27.0/2025,2000,g 13.0,4.0
# From MPEC 2023-UR6
419P/PANSTARRS,e,2.7952,40.4113,187.8539,3.533854,0.1483649,0.27370138,194.5242,05/27.0/2025,2000,g 12.5,4.0
# From MPEC 2024-L77
420P/Hill,e,14.4994,173.5451,156.4080,5.481802,0.0767926,0.49511735,84.8380,05/27.0/2025,2000,g 11.5,4.0
# From MPEC 2021-W31
421P/McNaught,e,10.0758,55.3321,259.8597,5.074882,0.0862115,0.67438510,136.5890,05/27.0/2025,2000,g 14.0,4.0
# From MPEC 2024-N80
422P/Christensen,e,39.5804,36.0135,304.7615,6.274366,0.0627118,0.50571497,77.2742,05/27.0/2025,2000,g 11.0,4.0
# From MPEC 2023-FK0
423P/Lemmon,e,8.3427,33.3021,80.9111,6.182050,0.0641217,0.12278437,85.8306,05/27.0/2025,2000,g  8.0,4.0
# From MPEC 2022-CN4
424P/LaSagra,e,8.6816,51.2111,312.5571,4.420989,0.1060291,0.69038574,138.2719,05/27.0/2025,2000,g 17.0,4.0
# From MPEC 2024-C04
425P/Kowalski,e,16.4140,210.0864,200.9892,6.351574,0.0615718,0.54372891,82.7540,05/27.0/2025,2000,g 12.0,4.0
# From MPEC 2024-N80
426P/PANSTARRS,e,17.7841,280.3970,118.3940,3.185857,0.1733264,0.16104404,108.2688,05/27.0/2025,2000,g 13.5,4.0
# From MPEC 2023-J29
428P/Gibbs,e,8.5029,299.3115,36.8963,3.488484,0.1512687,0.51821139,223.1056,05/27.0/2025,2000,g 15.0,4.0
# From MPEC 2024-EF7
429P/LINEAR-Hill,e,7.5143,322.0152,75.7341,3.555821,0.1469922,0.49086328,182.3923,05/27.0/2025,2000,g 15.5,4.0
# From MPEC 2022-L66
430P/Scotti,e,4.4756,54.6475,94.4508,3.103253,0.1802928,0.50026567,229.1986,05/27.0/2025,2000,g 16.5,4.0
# From MPEC 2025-A40
431P/Scotti,e,22.3806,202.8386,200.0011,3.476995,0.1520191,0.47736008,182.1927,05/27.0/2025,2000,g 14.0,4.0
# From MPEC 2021-U31
432P/PANSTARRS,e,10.0679,239.1305,105.2735,3.038316,0.1861036,0.24084759,254.4000,05/27.0/2025,2000,g 17.0,4.0
# From MPEC 2024-D33
434P/Tenagra,e,6.3363,288.9138,128.4424,4.135896,0.1171790,0.27433094,153.2577,05/27.0/2025,2000,g 13.0,4.0
# From MPEC 2021-W31
435P/PANSTARRS,e,18.8745,98.5245,244.2108,3.021621,0.1876481,0.31756746,262.8642,05/27.0/2025,2000,g 17.0,4.0
# From MPEC 2022-X67
436P/Garradd,e,20.1993,87.1567,282.7613,5.936765,0.0681364,0.66908171,86.2725,05/27.0/2025,2000,g 14.5,4.0
# From MPEC 2023-B57
437P/Lemmon-PANSTARRS,e,3.6890,245.8406,207.0565,4.568860,0.1009235,0.25506069,102.0099,05/27.0/2025,2000,g 13.0,4.0
# From MPEC 2025-A40
438P/Christensen,e,8.2807,260.1090,58.9882,3.852573,0.1303400,0.41414596,245.1505,05/27.0/2025,2000,g 14.5,4.0
# From MPEC 2022-C56
439P/LINEAR,e,7.1121,56.4377,342.1056,3.491822,0.1510518,0.46911128,206.8852,05/27.0/2025,2000,g 13.5,4.0
# From MPEC 2024-N80
440P/Kobayashi,e,12.3504,328.8062,183.2999,8.579082,0.0392232,0.76084528,45.2494,05/27.0/2025,2000,g 15.5,4.0
# From MPEC 2022-X67
441P/PANSTARRS,e,2.5747,143.5913,178.8633,4.132284,0.1173326,0.19466517,347.6383,05/27.0/2025,2000,g 13.5,4.0
# From MPEC 2024-N80
